NORAD_CAT_ID,OBJECT_NAME,OBJECT_TYPE,EPOCH,MEAN_MOTION,ECCENTRICITY,INCLINATION,RA_OF_ASC_NODE,ARG_OF_PERICENTER,MEAN_ANOMALY,BSTAR,MEAN_MOTION_DOT,MEAN_MOTION_DDOT,TLE_LINE0,TLE_LINE1,TLE_LINE2,SEMIMAJOR_AXIS,PERIOD,APOGEE,PERIGEE,DECAYED
49739.0,STARLINK-3155,PAYLOAD,2024-06-06 17:17:35,15.08842358,0.0001354,53.217,156.5435,87.3532,272.7615,4.3841e-05,4.1e-06,0.0,0 STARLINK-3155,1 49739U 21115R   24158.72055339  .00000410  00000-0  43841-4 0  9995,2 49739  53.2170 156.5435 0001354  87.3532 272.7615 15.08842358139739,6917.873,95.437,540.675,538.802,0.0
49739.0,STARLINK-3155,PAYLOAD,2024-06-07 09:11:27,15.08842052,0.0001347,53.2167,153.5691,91.3324,268.7822,5.4823e-05,5.85e-06,0.0,0 STARLINK-3155,1 49739U 21115R   24159.38295270  .00000585  00000-0  54823-4 0  9993,2 49739  53.2167 153.5691 0001347  91.3324 268.7822 15.08842052138726,6917.874,95.437,540.671,538.807,0.0
49739.0,STARLINK-3155,PAYLOAD,2024-06-07 17:08:22,15.08845563,0.0001356,53.2167,152.0832,88.637,271.4778,7.3379e-05,8.8e-06,0.0,0 STARLINK-3155,1 49739U 21115R   24159.71414966  .00000880  00000-0  73379-4 0  9990,2 49739  53.2167 152.0832 0001356  88.6370 271.4778 15.08845563138773,6917.863,95.437,540.666,538.79,0.0
49739.0,STARLINK-3155,PAYLOAD,2024-06-08 05:51:27,15.08843166,0.0001358,53.2168,149.704,92.3124,267.8024,0.00011796,1.59e-05,0.0,0 STARLINK-3155,1 49739U 21115R   24160.24406970  .00001590  00000-0  11796-3 0  9999,2 49739  53.2168 149.7040 0001358  92.3124 267.8024 15.08843166139961,6917.871,95.437,540.675,538.796,0.0
49739.0,STARLINK-3155,PAYLOAD,2024-06-09 05:42:14,15.088409,0.0001427,53.2173,145.2423,98.8886,261.2268,3.304e-05,2.38e-06,0.0,0 STARLINK-3155,1 49739U 21115R   24161.23767215  .00000238  00000-0  33040-4 0  9996,2 49739  53.2173 145.2423 0001427  98.8886 261.2268 15.08840900140116,6917.878,95.437,540.73,538.755,0.0
49739.0,STARLINK-3155,PAYLOAD,2024-06-09 23:11:29,15.08834582,0.0001428,53.2169,141.971,99.2788,260.8366,-2.8287e-05,-7.38e-06,0.0,0 STARLINK-3155,1 49739U 21115R   24161.96631875 -.00000738  00000-0 -28287-4 0  9992,2 49739  53.2169 141.9710 0001428  99.2788 260.8366 15.08834582139111,6917.897,95.438,540.75,538.774,0.0
49739.0,STARLINK-3155,PAYLOAD,2024-06-10 05:33:02,15.08840551,0.0001381,53.2164,140.7844,91.9342,268.1808,2.0796e-05,4.3e-07,0.0,0 STARLINK-3155,1 49739U 21115R   24162.23127407  .00000043  00000-0  20796-4 0  9998,2 49739  53.2164 140.7844 0001381  91.9342 268.1808 15.08840551139153,6917.879,95.438,540.699,538.788,0.0
49739.0,STARLINK-3155,PAYLOAD,2024-06-10 15:05:20,15.0884672,0.0001483,53.2174,139.0008,95.1178,264.9984,6.4912e-05,7.45e-06,0.0,0 STARLINK-3155,1 49739U 21115R   24162.62870815  .00000745  00000-0  64912-4 0  9996,2 49739  53.2174 139.0008 0001483  95.1178 264.9984 15.08846720140327,6917.86,95.437,540.751,538.699,0.0
49739.0,STARLINK-3155,PAYLOAD,2024-06-10 23:02:16,15.08836026,0.0002093,53.2176,137.5129,91.1807,268.9425,9.6405e-05,1.246e-05,0.0,0 STARLINK-3155,1 49739U 21115R   24162.95991537  .00001246  00000-0  96405-4 0  9996,2 49739  53.2176 137.5129 0002093  91.1807 268.9425 15.08836026139262,6917.893,95.438,541.205,538.31,0.0
49739.0,STARLINK-3155,PAYLOAD,2024-06-11 05:23:49,15.08829494,0.0001633,53.2179,136.326,105.3277,254.7896,3.5892e-05,2.83e-06,0.0,0 STARLINK-3155,1 49739U 21115R   24163.22488191  .00000283  00000-0  35892-4 0  9997,2 49739  53.2179 136.3260 0001633 105.3277 254.7896 15.08829494140411,6917.913,95.438,540.907,538.648,0.0
49739.0,STARLINK-3155,PAYLOAD,2024-06-11 06:59:12,15.08830448,0.0001585,53.218,136.0277,100.1708,259.9463,4.506e-05,4.29e-06,0.0,0 STARLINK-3155,1 49739U 21115R   24163.29112165  .00000429  00000-0  45060-4 0  9999,2 49739  53.2180 136.0277 0001585 100.1708 259.9463 15.08830448139311,6917.91,95.438,540.871,538.678,0.0
49739.0,STARLINK-3155,PAYLOAD,2024-06-12 05:14:36,15.08838197,0.0001489,53.2176,131.8639,98.5896,261.5265,4.4733e-05,4.24e-06,0.0,0 STARLINK-3155,1 49739U 21115R   24164.21848073  .00000424  00000-0  44733-4 0  9997,2 49739  53.2176 131.8639 0001489  98.5896 261.5265 15.08838197140569,6917.886,95.438,540.781,538.721,0.0
49739.0,STARLINK-3155,PAYLOAD,2024-06-12 06:49:59,15.08838959,0.0001462,53.2175,131.5661,95.8958,264.22,5.0994e-05,5.24e-06,0.0,0 STARLINK-3155,1 49739U 21115R   24164.28472036  .00000524  00000-0  50994-4 0  9993,2 49739  53.2175 131.5661 0001462  95.8958 264.2200 15.08838959139462,6917.884,95.438,540.76,538.737,0.0
49739.0,STARLINK-3155,PAYLOAD,2024-06-13 05:05:24,15.08834401,0.0001367,53.2171,127.4016,92.6799,267.435,7.7375e-05,9.44e-06,0.0,0 STARLINK-3155,1 49739U 21115R   24165.21208510  .00000944  00000-0  77375-4 0  9999,2 49739  53.2171 127.4016 0001367  92.6799 267.4350 15.08834401140717,6917.898,95.438,540.708,538.817,0.0
49739.0,STARLINK-3155,PAYLOAD,2024-06-13 14:37:42,15.08841272,0.000136,53.217,125.6166,85.0118,275.1029,0.0001059,1.398e-05,0.0,0 STARLINK-3155,1 49739U 21115R   24165.60952042  .00001398  00000-0  10590-3 0  9997,2 49739  53.2170 125.6166 0001360  85.0118 275.1029 15.08841272139661,6917.877,95.437,540.682,538.801,0.0
49739.0,STARLINK-3155,PAYLOAD,2024-06-14 14:28:29,15.08844755,0.000146,53.2183,121.1565,90.087,270.0289,9.7368e-05,1.262e-05,0.0,0 STARLINK-3155,1 49739U 21115R   24166.60311955  .00001262  00000-0  97368-4 0  9999,2 49739  53.2183 121.1565 0001460  90.0870 270.0289 15.08844755139819,6917.866,95.437,540.741,538.721,0.0
49739.0,STARLINK-3155,PAYLOAD,2024-06-14 20:50:02,15.08842882,0.0001342,53.2161,119.9711,95.7543,264.3603,8.298e-05,1.033e-05,0.0,0 STARLINK-3155,1 49739U 21115R   24166.86808062  .00001033  00000-0  82980-4 0  9997,2 49739  53.2161 119.9711 0001342  95.7543 264.3603 15.08842882139850,6917.872,95.437,540.665,538.808,0.0
49739.0,STARLINK-3155,PAYLOAD,2024-06-15 06:22:20,15.08844684,0.0001502,53.2185,118.1822,102.0354,258.0807,7.8329e-05,9.59e-06,0.0,0 STARLINK-3155,1 49739U 21115R   24167.26551979  .00000959  00000-0  78329-4 0  9992,2 49739  53.2185 118.1822 0001502 102.0354 258.0807 15.08844684139915,6917.866,95.437,540.77,538.692,0.0
49739.0,STARLINK-3155,PAYLOAD,2024-06-15 20:40:49,15.0884136,0.0001327,53.2173,115.5067,96.164,263.9503,0.00010744,1.422e-05,0.0,0 STARLINK-3155,1 49739U 21115R   24167.86167907  .00001422  00000-0  10744-3 0  9994,2 49739  53.2173 115.5067 0001327  96.1640 263.9503 15.08841360140008,6917.876,95.437,540.659,538.823,0.0
49739.0,STARLINK-3155,PAYLOAD,2024-06-16 03:02:21,15.08846767,0.0001408,53.2185,114.3164,98.0688,262.0464,-8.2757e-05,-1.605e-05,0.0,0 STARLINK-3155,1 49739U 21115R   24168.12664213 -.00001605  00000-0 -82757-4 0  9995,2 49739  53.2185 114.3164 0001408  98.0688 262.0464 15.08846767140045,6917.86,95.437,540.699,538.751,0.0
49739.0,STARLINK-3155,PAYLOAD,2024-06-17 06:03:55,15.08837533,0.0001308,53.2176,109.2619,95.6737,264.4404,-2.4083e-05,-6.71e-06,0.0,0 STARLINK-3155,1 49739U 21115R   24169.25272813 -.00000671  00000-0 -24083-4 0  9991,2 49739  53.2176 109.2619 0001308  95.6737 264.4404 15.08837533140210,6917.888,95.438,540.658,538.848,0.0
49739.0,STARLINK-3155,PAYLOAD,2024-06-18 12:16:14,15.08843575,0.000128,53.2178,103.6143,96.0024,264.1114,0.00012692,1.733e-05,0.0,0 STARLINK-3155,1 49739U 21115R   24170.51128085  .00001733  00000-0  12692-3 0  9993,2 49739  53.2178 103.6143 0001280  96.0024 264.1114 15.08843575141517,6917.869,95.437,540.62,538.849,0.0
49739.0,STARLINK-3155,PAYLOAD,2024-06-18 20:13:11,15.08833418,0.0001894,53.218,102.1312,102.0369,258.0835,6.5223e-05,7.5e-06,0.0,0 STARLINK-3155,1 49739U 21115R   24170.84249450  .00000750  00000-0  65223-4 0  9996,2 49739  53.2180 102.1312 0001894 102.0369 258.0835 15.08833418141565,6917.901,95.438,541.076,538.455,0.0
49739.0,STARLINK-3155,PAYLOAD,2024-06-19 12:07:02,15.08839923,0.000145,53.2182,99.1538,90.6077,269.5081,9.0801e-05,1.157e-05,0.0,0 STARLINK-3155,1 49739U 21115R   24171.50488883  .00001157  00000-0  90801-4 0  9997,2 49739  53.2182  99.1538 0001450  90.6077 269.5081 15.08839923141666,6917.881,95.438,540.749,538.743,0.0
49739.0,STARLINK-3155,PAYLOAD,2024-06-19 18:28:35,15.0883624,0.0001513,53.219,97.9653,90.1942,269.9223,6.5491e-05,7.54e-06,0.0,0 STARLINK-3155,1 49739U 21115R   24171.76985270  .00000754  00000-0  65491-4 0  9996,2 49739  53.2190  97.9653 0001513  90.1942 269.9223 15.08836240140597,6917.892,95.438,540.804,538.71,0.0
49739.0,STARLINK-3155,PAYLOAD,2024-06-20 11:57:49,15.08841881,0.0001549,53.2189,94.6942,84.641,275.4759,-1.7152e-07,-2.91e-06,0.0,0 STARLINK-3155,1 49739U 21115R   24172.49849262 -.00000291  00000-0 -17152-6 0  9998,2 49739  53.2189  94.6942 0001549  84.6410 275.4759 15.08841881140703,6917.875,95.437,540.811,538.668,0.0
49739.0,STARLINK-3155,PAYLOAD,2024-06-20 23:05:32,15.08831217,0.00017,53.2198,92.613,86.1803,273.9383,6.1908e-05,6.97e-06,0.0,0 STARLINK-3155,1 49739U 21115R   24172.96217894  .00000697  00000-0  61908-4 0  9994,2 49739  53.2198  92.6130 0001700  86.1803 273.9383 15.08831217141880,6917.907,95.438,540.948,538.596,0.0
49739.0,STARLINK-3155,PAYLOAD,2024-06-21 03:51:41,15.08839342,0.000165,53.2188,91.7207,84.3778,275.7403,8.2094e-05,1.019e-05,0.0,0 STARLINK-3155,1 49739U 21115R   24173.16089374  .00001019  00000-0  82094-4 0  9995,2 49739  53.2188  91.7207 0001650  84.3778 275.7403 15.08839342141913,6917.882,95.438,540.889,538.606,0.0
49739.0,STARLINK-3155,PAYLOAD,2024-06-21 22:56:18,15.08840594,0.0001699,53.2185,88.1517,81.9587,278.1598,5.8958e-05,6.5e-06,0.0,0 STARLINK-3155,1 49739U 21115R   24173.95577336  .00000650  00000-0  58958-4 0  9994,2 49739  53.2185  88.1517 0001699  81.9587 278.1598 15.08840594140921,6917.879,95.438,540.919,538.568,0.0
49739.0,STARLINK-3155,PAYLOAD,2024-06-22 03:42:28,15.08842557,0.0001584,53.2182,87.259,80.0205,280.0966,5.36e-05,5.65e-06,0.0,0 STARLINK-3155,1 49739U 21115R   24174.15449207  .00000565  00000-0  53600-4 0  9996,2 49739  53.2182  87.2590 0001584  80.0205 280.0966 15.08842557140954,6917.873,95.437,540.833,538.642,0.0
